NORAD_CAT_ID,OBJECT_NAME,OBJECT_TYPE,EPOCH,MEAN_MOTION,ECCENTRICITY,INCLINATION,RA_OF_ASC_NODE,ARG_OF_PERICENTER,MEAN_ANOMALY,BSTAR,MEAN_MOTION_DOT,MEAN_MOTION_DDOT,TLE_LINE0,TLE_LINE1,TLE_LINE2,SEMIMAJOR_AXIS,PERIOD,APOGEE,PERIGEE,DECAYED
55286.0,STARLINK-5338,PAYLOAD,2023-05-17 14:00:01,15.51243703,0.0003517,69.9998,97.4711,266.8297,165.2072,-0.001068,-0.00062452,0.0,0 STARLINK-5338,1 55286U 23010T   23137.58335648 -.00062452  00000-0 -10680-2 0  9998,2 55286  69.9998  97.4711 0003517 266.8297 165.2072 15.51243703 19029,6791.231,92.829,415.484,410.707,0.0
55286.0,STARLINK-5338,PAYLOAD,2023-05-17 22:00:00,15.51226125,0.0003547,70.0005,96.5598,261.9873,230.8838,9.0563e-05,5.159e-05,0.0,0 STARLINK-5338,1 55286U 23010T   23137.91667824  .00005159  00000-0  90563-4 0  9998,2 55286  70.0005  96.5598 0003547 261.9873 230.8838 15.51226125 19087,6791.282,92.83,415.556,410.738,0.0
55286.0,STARLINK-5338,PAYLOAD,2023-05-18 14:00:01,15.51283743,0.00036,70.0003,94.7371,262.8695,351.8277,-0.0030887,-0.0017797,0.0,0 STARLINK-5338,1 55286U 23010T   23138.58334491 -.00177970  00000-0 -30887-2 0  9997,2 55286  70.0003  94.7371 0003600 262.8695 351.8277 15.51283743  1302,6791.114,92.826,415.424,410.534,0.0
55286.0,STARLINK-5338,PAYLOAD,2023-05-18 22:00:00,15.51438481,0.000385,70.0008,93.8258,260.996,54.5915,-0.014835,-0.00806319,0.0,0 STARLINK-5338,1 55286U 23010T   23138.91667824 -.00806319  00000-0 -14835-1 0  9993,2 55286  70.0008  93.8258 0003850 260.9960  54.5915 15.51438481 19230,6790.662,92.817,415.142,409.913,0.0
55286.0,STARLINK-5338,PAYLOAD,2023-05-19 06:00:00,15.50862254,0.0003532,70.0007,92.9145,269.663,106.7425,-0.017009,-0.00896687,0.0,0 STARLINK-5338,1 55286U 23010T   23139.25001157 -.00896687  00000-0 -17009-1 0  9995,2 55286  70.0007  92.9145 0003532 269.6630 106.7425 15.50862254 19280,6792.344,92.852,416.608,411.81,0.0
55286.0,STARLINK-5338,PAYLOAD,2023-05-19 21:25:20,15.50617953,0.0004247,69.9987,91.1633,254.3653,105.7064,-0.0012003,-0.00068585,0.0,0 STARLINK-5338,1 55286U 23010T   23139.89259377 -.00068585  00000-0 -12003-2 0  9992,2 55286  69.9987  91.1633 0004247 254.3653 105.7064 15.50617953 19694,6793.058,92.866,417.808,412.038,0.0
55286.0,STARLINK-5338,PAYLOAD,2023-05-19 22:00:01,15.49591267,0.0003282,70.0011,91.0951,267.2277,228.6163,-0.019188,-0.00974016,0.0,0 STARLINK-5338,1 55286U 23010T   23139.91668981 -.00974016  00000-0 -19188-1 0  9995,2 55286  70.0011  91.0951 0003282 267.2277 228.6163 15.49591267 19399,6796.058,92.928,420.153,415.692,0.0
55286.0,STARLINK-5338,PAYLOAD,2023-05-20 05:10:33,15.50038504,0.0002549,70.0004,90.2856,261.6061,98.4835,-0.002343,-0.00129967,0.0,0 STARLINK-5338,1 55286U 23010T   23140.21565975 -.00129967  00000-0 -23430-2 0  9992,2 55286  70.0004  90.2856 0002549 261.6061  98.4835 15.50038504 19436,6794.751,92.901,418.348,414.884,0.0
55286.0,STARLINK-5338,PAYLOAD,2023-05-20 14:00:01,15.48231196,0.0003174,70.0009,89.2789,267.0784,344.9682,-0.018272,-0.00879169,0.0,0 STARLINK-5338,1 55286U 23010T   23140.58334491 -.00879169  00000-0 -18272-1 0  9992,2 55286  70.0009  89.2789 0003174 267.0784 344.9682 15.48231196 19495,6800.037,93.009,424.061,419.744,0.0
55286.0,STARLINK-5338,PAYLOAD,2023-05-20 22:00:01,15.47632069,0.0003344,70.0014,88.3722,263.7711,45.273,-0.020414,-0.00967875,0.0,0 STARLINK-5338,1 55286U 23010T   23140.91668981 -.00967875  00000-0 -20414-1 0  9996,2 55286  70.0014  88.3722 0003344 263.7711  45.2730 15.47632069  1309,6801.792,93.045,425.932,421.383,0.0
55286.0,STARLINK-5338,PAYLOAD,2023-05-21 06:00:00,15.46931625,0.0003351,70.0013,87.4663,271.0174,94.1449,-0.019074,-0.00877297,0.0,0 STARLINK-5338,1 55286U 23010T   23141.25001157 -.00877297  00000-0 -19074-1 0  9998,2 55286  70.0013  87.4663 0003351 271.0174  94.1449 15.46931625 19594,6803.845,93.088,427.99,423.43,0.0
55286.0,STARLINK-5338,PAYLOAD,2023-05-21 14:00:01,15.46265282,0.000334,70.0011,86.5613,267.1138,153.4425,-0.019203,-0.00864302,0.0,0 STARLINK-5338,1 55286U 23010T   23141.58334491 -.00864302  00000-0 -19203-1 0  9991,2 55286  70.0011  86.5613 0003340 267.1138 153.4425 15.46265282  1303,6805.8,93.128,429.938,425.392,0.0
55286.0,STARLINK-5338,PAYLOAD,2023-05-21 22:00:00,15.45669559,0.0003293,70.0014,85.6572,266.4902,208.6514,-0.021735,-0.00963167,0.0,0 STARLINK-5338,1 55286U 23010T   23141.91667824 -.00963167  00000-0 -21735-1 0  9999,2 55286  70.0014  85.6572 0003293 266.4902 208.6514 15.45669559 19707,6807.548,93.164,431.655,427.172,0.0
55286.0,STARLINK-5338,PAYLOAD,2023-05-22 00:00:00,15.45481831,0.0003285,70.0014,85.4313,266.4977,312.1845,-0.021112,-0.0093222,0.0,0 STARLINK-5338,1 55286U 23010T   23142.00001157 -.00932220  00000-0 -21112-1 0  9996,2 55286  70.0014  85.4313 0003285 266.4977 312.1845 15.45481831  1301,6808.1,93.175,432.201,427.728,0.0
55286.0,STARLINK-5338,PAYLOAD,2023-05-22 13:03:17,15.45799477,0.00025,69.999,83.9633,291.3067,68.7849,-0.0036918,-0.00175635,0.0,0 STARLINK-5338,1 55286U 23010T   23142.54395540 -.00175635  00000-0 -36918-2 0  9997,2 55286  69.9990  83.9633 0002500 291.3067  68.7849 15.45799477 20100,6807.167,93.156,430.734,427.33,0.0
55286.0,STARLINK-5338,PAYLOAD,2023-05-22 14:00:01,15.44308808,0.0003204,70.0013,83.8517,268.6412,313.381,-0.020516,-0.008749,0.0,0 STARLINK-5338,1 55286U 23010T   23142.58334491 -.00874900  00000-0 -20516-1 0  9996,2 55286  70.0013  83.8517 0003204 268.6412 313.3810 15.44308808 19807,6811.547,93.246,435.594,431.229,0.0
55286.0,STARLINK-5338,PAYLOAD,2023-05-22 22:00:00,15.437141,0.0003341,70.0013,82.9505,266.0229,8.2366,-0.02325,-0.0096367,0.0,0 STARLINK-5338,1 55286U 23010T   23142.91667824 -.00963670  00000-0 -23250-1 0  9993,2 55286  70.0013  82.9505 0003341 266.0229   8.2366 15.43714100  1301,6813.296,93.282,437.437,432.885,0.0
55286.0,STARLINK-5338,PAYLOAD,2023-05-23 06:00:00,15.43012495,0.0003352,70.0011,82.0499,273.0436,52.7057,-0.021525,-0.00878222,0.0,0 STARLINK-5338,1 55286U 23010T   23143.25001157 -.00878222  00000-0 -21525-1 0  9993,2 55286  70.0011  82.0499 0003352 273.0436  52.7057 15.43012495 19906,6815.361,93.324,439.511,434.942,0.0
55286.0,STARLINK-5338,PAYLOAD,2023-05-23 22:00:00,15.41754597,0.0003503,70.0013,80.2517,268.8076,157.5334,-0.024784,-0.00961798,0.0,0 STARLINK-5338,1 55286U 23010T   23143.91667824 -.00961798  00000-0 -24784-1 0  9996,2 55286  70.0013  80.2517 0003503 268.8076 157.5334 15.41754597 20008,6819.068,93.4,443.321,438.544,0.0
55286.0,STARLINK-5338,PAYLOAD,2023-05-24 14:00:01,15.40389035,0.0003401,70.0009,78.4564,269.0708,254.8252,-0.023026,-0.00861855,0.0,0 STARLINK-5338,1 55286U 23010T   23144.58335648 -.00861855  00000-0 -23026-1 0  9997,2 55286  70.0009  78.4564 0003401 269.0708 254.8252 15.40389035 20118,6823.097,93.483,447.283,442.642,0.0
55286.0,STARLINK-5338,PAYLOAD,2023-05-24 22:00:00,15.39789828,0.0003461,70.0012,77.5603,268.1351,303.2458,-0.026052,-0.00948239,0.0,0 STARLINK-5338,1 55286U 23010T   23144.91667824 -.00948239  00000-0 -26052-1 0  9992,2 55286  70.0012  77.5603 0003461 268.1351 303.2458 15.39789828  1305,6824.867,93.519,449.094,444.37,0.0
55286.0,STARLINK-5338,PAYLOAD,2023-05-25 06:00:00,15.39098728,0.0003494,70.001,76.6649,273.9857,344.1849,-0.024581,-0.00880192,0.0,0 STARLINK-5338,1 55286U 23010T   23145.25001157 -.00880192  00000-0 -24581-1 0  9999,2 55286  70.0010  76.6649 0003494 273.9857 344.1849 15.39098728 20215,6826.91,93.561,451.16,446.39,0.0
55286.0,STARLINK-5338,PAYLOAD,2023-05-25 14:00:01,15.38430998,0.0003403,70.0008,75.7704,266.4544,37.7215,-0.024514,-0.00860361,0.0,0 STARLINK-5338,1 55286U 23010T   23145.58334491 -.00860361  00000-0 -24514-1 0  9997,2 55286  70.0008  75.7704 0003403 266.4544  37.7215 15.38430998  1303,6828.885,93.602,453.074,448.427,0.0
55286.0,STARLINK-5338,PAYLOAD,2023-05-25 22:00:00,15.37840577,0.0003576,70.001,74.8768,267.6439,81.7312,-0.02826,-0.00963476,0.0,0 STARLINK-5338,1 55286U 23010T   23145.91667824 -.00963476  00000-0 -28260-1 0  9996,2 55286  70.0010  74.8768 0003576 267.6439  81.7312 15.37840577 20319,6830.633,93.638,454.941,450.056,0.0
55286.0,STARLINK-5338,PAYLOAD,2023-05-26 00:00:02,15.37653539,0.0003446,70.0009,74.6536,271.1453,179.4865,-0.027509,-0.0093469,0.0,0 STARLINK-5338,1 55286U 23010T   23146.00002315 -.00934690  00000-0 -27509-1 0  9996,2 55286  70.0009  74.6536 0003446 271.1453 179.4865 15.37653539  1306,6831.187,93.649,455.406,450.698,0.0
55286.0,STARLINK-5338,PAYLOAD,2023-05-26 14:00:01,15.36467479,0.0003407,70.0007,73.0924,270.4644,167.0174,-0.025741,-0.00848504,0.0,0 STARLINK-5338,1 55286U 23010T   23146.58334491 -.00848504  00000-0 -25741-1 0  9996,2 55286  70.0007  73.0924 0003407 270.4644 167.0174 15.36467479 20424,6834.702,93.721,458.896,454.239,0.0
55286.0,STARLINK-5338,PAYLOAD,2023-05-26 22:00:01,15.35881131,0.0003414,70.0007,72.2015,270.3004,210.0968,-0.030135,-0.00964071,0.0,0 STARLINK-5338,1 55286U 23010T   23146.91668981 -.00964071  00000-0 -30135-1 0  9998,2 55286  70.0007  72.2015 0003414 270.3004 210.0968 15.35881131  1303,6836.442,93.757,460.641,455.973,0.0
55286.0,STARLINK-5338,PAYLOAD,2023-05-27 06:00:02,15.3519799,0.0003316,70.0005,71.3114,275.0846,247.4029,-0.028436,-0.00895768,0.0,0 STARLINK-5338,1 55286U 23010T   23147.25002315 -.00895768  00000-0 -28436-1 0  9996,2 55286  70.0005  71.3114 0003316 275.0846 247.4029 15.35197990 20528,6838.469,93.799,462.602,458.067,0.0
55286.0,STARLINK-5338,PAYLOAD,2023-05-27 22:00:00,15.3392153,0.0003271,70.0008,69.5343,268.0716,336.1788,-0.031986,-0.00961294,0.0,0 STARLINK-5338,1 55286U 23010T   23147.91667824 -.00961294  00000-0 -31986-1 0  9993,2 55286  70.0008  69.5343 0003271 268.0716 336.1788 15.33921530 20624,6842.263,93.877,466.366,461.89,0.0
55286.0,STARLINK-5338,PAYLOAD,2023-05-28 06:00:00,15.3324904,0.0003375,70.0004,68.6468,272.7135,11.2758,-0.030694,-0.0090768,0.0,0 STARLINK-5338,1 55286U 23010T   23148.25001157 -.00907680  00000-0 -30694-1 0  9996,2 55286  70.0004  68.6468 0003375 272.7135  11.2758 15.33249040  1301,6844.263,93.918,468.438,463.818,0.0
